ONEWEB-0461             
1 51649U 22012AD  24208.43714328  .00000033  00000+0  50816-4 0  9999
2 51649  87.9188 143.4038 0002151  79.4307 280.7066 13.17649331122923
ONEWEB-0463             
1 51650U 22012AE  24208.34343428  .00000142  00000+0  33318-3 0  9998
2 51650  87.9191 143.4707 0002144  79.2991 280.8381 13.17648450122697
ONEWEB-0464             
1 51651U 22012AF  24208.37933995  .00000008  00000+0 -14593-4 0  9993
2 51651  87.8959 173.6683 0001829  73.7503 286.3826 13.10370644118852
ONEWEB-0468             
1 51652U 22012AG  24208.38599386 -.00000343  00000+0 -10182-2 0  9998
2 51652  87.8960 173.6599 0002030  81.3890 278.7467 13.10372800118830
ONEWEB-0475             
1 51655U 22012AK  24208.35474895  .00000097  00000+0  21648-3 0  9999
2 51655  87.9193 143.4475 0002195  69.8023 290.3345 13.17649530122712
ONEWEB-0490             
1 54113U 22138A   24208.36777572  .00000129  00000+0  28967-3 0  9996
2 54113  87.9121  82.4219 0001739  75.3448 284.7877 13.19725623 85714
